Location_PK,country,city,department,address,street,postal_code
1,Guatemala,Ciudad Vieja,Engineering,4th Floor,22 Norway Maple Hill,03012
2,Malaysia,Petaling Jaya,Research and Development,Apt 775,25798 Burrows Street,46781
3,Sweden,Täby,Training,Suite 10,1 Dapin Terrace,183 83
4,France,Montpellier,Training,Room 915,430 Nancy Point,34087 CEDEX 4
5,China,Shangma,Accounting,Room 15,274 Sutherland Lane,
6,Armenia,Lukashin,Sales,11th Floor,1326 Jay Pass,
7,Indonesia,Rerawere,Services,13th Floor,29 Norway Maple Center,
8,Philippines,Malawag,Business Development,7th Floor,86 Washington Alley,4022
9,Bulgaria,Zavet,Training,PO Box 47151,809 Schurz Parkway,7330
10,Sweden,Lidingö,Accounting,Suite 10,11992 Cardinal Junction,181 72
11,Saint Martin,Marigot,Engineering,PO Box 15548,436 Westend Avenue,
12,Philippines,Mandaon,Accounting,Room 13,1 Dakota Drive,5411
13,France,Versailles,Support,Room 241,3 Ohio Avenue,78014 CEDEX
14,Indonesia,Batubantar,Sales,PO Box 89360,1754 Packers Street,
15,Tunisia,Banī Ḩassān,Engineering,PO Box 84512,40 Jenna Way,
16,Brazil,Fortaleza,Engineering,PO Box 36989,5127 Leroy Alley,60000-000
17,China,Dongdai,Human Resources,Suite 22,1 Welch Pass,
18,Ukraine,Voyinka,Business Development,Apt 1611,6 Independence Street,
19,Philippines,Taywanak Ilaya,Human Resources,6th Floor,0937 3rd Park,4133
20,Afghanistan,Kanḏay,Training,Suite 91,5 Shelley Alley,
21,China,Guanshan,Marketing,Suite 97,884 Shasta Street,
22,Czech Republic,Chvaletice,Human Resources,Room 465,69 Schurz Drive,533 12
23,China,Guicheng,Accounting,19th Floor,04 Laurel Lane,
24,Niger,Alaghsas,Legal,19th Floor,27 Clyde Gallagher Junction,
25,Thailand,Nam Som,Engineering,Room 111,644 Hallows Park,41210
26,Mongolia,Delgermörön,Business Development,Suite 98,06257 Jay Plaza,
27,Botswana,Mmathubudukwane,Support,Apt 713,17836 Meadow Valley Avenue,
28,France,Lyon,Product Management,Suite 4,875 Garrison Alley,69367 CEDEX 07
29,Thailand,Maha Sarakham,Business Development,PO Box 76937,1597 Veith Hill,90160
30,Cuba,Boyeros,Services,PO Box 75628,434 Hansons Place,
31,Portugal,Quintã,Business Development,15th Floor,8 Sachs Circle,4620-729
32,United States,Washington,Sales,Room 1727,4152 Westerfield Way,20036
33,Portugal,Zambujal,Product Management,Room 599,413 Parkside Crossing,2970-182
34,Brazil,Morada Nova,Training,Room 1466,8532 Merchant Road,62940-000
35,Brazil,Aracati,Business Development,Apt 1288,895 Michigan Crossing,62800-000
36,Russia,Nekrasovka,Training,Suite 43,9 Buena Vista Circle,140074
37,Indonesia,Binangun,Sales,Apt 1934,9389 Eliot Crossing,
38,China,Antou,Research and Development,Room 1560,299 Thierer Center,
39,Argentina,Valcheta,Product Management,Room 229,7890 Spenser Trail,8536
40,Brazil,Itaperuna,Product Management,Suite 30,9 Steensland Parkway,28300-000
41,Vietnam,Phú Túc,Human Resources,PO Box 69766,1938 John Wall Hill,
42,Egypt,Al Jīzah,Business Development,Apt 217,39758 Mesta Drive,
43,Czech Republic,Štítná nad Vláří,Research and Development,PO Box 4001,5897 Golf View Court,763 33
44,Argentina,Junín,Marketing,Apt 1750,11 7th Road,5281
45,United States,Fullerton,Product Management,Room 1318,754 Mariners Cove Crossing,92640
46,Greece,Néa Karyá,Product Management,Room 1730,58853 Donald Way,
47,Portugal,Sines,Legal,Suite 12,7 Hooker Street,7520-103
48,United States,Battle Creek,Sales,PO Box 48462,732 Green Trail,49018
49,Kyrgyzstan,Talas,Business Development,PO Box 12310,6311 Fallview Point,
50,Panama,San Francisco,Research and Development,Suite 77,63 Randy Hill,
51,China,Zhongzhai,Sales,PO Box 30779,18801 Victoria Hill,
52,Mexico,Emiliano Zapata,Engineering,PO Box 69792,2055 Chive Road,61607
53,Philippines,Sexmoan,Support,Suite 26,9 Beilfuss Trail,2005
54,Netherlands,Alkmaar,Human Resources,PO Box 23985,94553 Annamark Point,1804
55,Argentina,Tafí Viejo,Sales,Apt 980,33237 Annamark Crossing,4105
56,Nigeria,Vom,Accounting,10th Floor,803 Green Ridge Trail,
57,France,Courtaboeuf,Legal,15th Floor,14 Jay Way,91959 CEDEX
58,Argentina,Río Tercero,Accounting,Room 1026,97473 Kings Parkway,5850
59,China,Cicheng,Services,15th Floor,950 Kim Alley,
60,New Zealand,Red Hill,Support,2nd Floor,42964 Muir Avenue,2110
61,Sudan,Al Qiţena,Sales,Apt 893,67 Anzinger Pass,
62,Greece,Plomárion,Engineering,PO Box 97015,2 Monterey Place,
63,Canada,Laval,Services,PO Box 45450,63 Novick Point,H7S
64,Sweden,Västervik,Business Development,14th Floor,2803 Monica Parkway,593 93
65,China,Liudu,Support,12th Floor,51997 Hudson Plaza,
66,Thailand,Bang Racham,Accounting,Room 691,8280 Shoshone Trail,16130
67,China,Jingtailu,Support,PO Box 89814,0338 Transport Trail,
68,Pakistan,Bārkhān,Sales,PO Box 28757,91536 Dayton Point,84400
69,Indonesia,Peuhaq,Marketing,Room 1373,070 Claremont Place,
70,Sweden,Solna,Accounting,5th Floor,5625 Hagan Pass,171 43
71,China,Yongning,Product Management,PO Box 64077,13 Bobwhite Trail,
72,Russia,Leskolovo,Support,PO Box 94421,0648 Sherman Circle,188668
73,France,Orvault,Legal,PO Box 84038,871 Cottonwood Street,44706 CEDEX
74,China,Wanshi,Services,Suite 52,1 Carioca Lane,
75,Colombia,Bello,Services,Apt 1010,0 Londonderry Park,051059
76,Georgia,Qvareli,Product Management,Room 150,2294 Moland Pass,
77,Nigeria,Yandev,Product Management,PO Box 2776,52 Fremont Center,
78,Russia,Alpatovo,Accounting,Apt 1269,062 Grasskamp Hill,433303
79,Poland,Choroszcz,Business Development,Room 1580,378 Mifflin Parkway,16-070
80,China,Yushu,Product Management,PO Box 7398,28 Ohio Center,
81,Japan,Takikawa,Human Resources,Room 1106,806 Hansons Park,503-0625
82,Indonesia,Kutamandarakan,Product Management,Apt 1636,04676 Westend Street,
83,Indonesia,Sadabumi,Services,Apt 645,0405 Mosinee Lane,
84,Syria,Al Qadmūs,Engineering,Room 849,8206 Londonderry Park,
85,North Korea,Aoji-ri,Training,Apt 773,29821 Lindbergh Lane,
86,United States,High Point,Accounting,7th Floor,898 Sunbrook Hill,27264
87,Russia,Zelenogradsk,Engineering,Room 1050,4 Shopko Lane,238530
88,France,Périgueux,Research and Development,Room 1990,66 Commercial Plaza,24016 CEDEX
89,Greece,Mólos,Business Development,15th Floor,77586 Stoughton Way,
90,China,Shinao,Services,PO Box 11524,92172 Butternut Court,
91,Canada,Burgeo,Product Management,Suite 22,88752 Brentwood Center,N9A
92,Vanuatu,Port-Vila,Sales,8th Floor,01 Schiller Alley,
93,Vietnam,Bình Minh,Human Resources,Room 1157,69331 Kropf Court,
94,Indonesia,Ciawitali,Engineering,7th Floor,901 Brentwood Lane,
95,Ukraine,Kapitanivka,Sales,PO Box 47064,021 Ramsey Court,
96,Turkmenistan,Serhetabat,Research and Development,Apt 1876,9760 Red Cloud Alley,
97,Japan,Shimodate,Training,Room 1985,3666 Crownhardt Crossing,309-1127
98,China,Fu’an,Support,Room 1186,99 Cottonwood Circle,
99,China,Xiaopingba,Marketing,Apt 328,4 Brown Park,
100,Philippines,Camias,Product Management,6th Floor,0 Quincy Lane,2307
101,Germany,Hamburg,Training,PO Box 30485,94956 Judy Center,22179
102,Portugal,Criação Velha,Services,PO Box 67136,8 Eastlawn Circle,9950-225
103,China,Dasha,Research and Development,Room 1514,90280 Hazelcrest Avenue,
104,Bulgaria,Topolovgrad,Services,Room 1108,37935 Carey Circle,8772
105,Russia,Tsimlyansk,Sales,3rd Floor,33 Bartillon Street,347320
106,Philippines,Polo,Support,Room 1490,38 Anhalt Trail,1444
107,China,Juancheng,Research and Development,14th Floor,73287 Ronald Regan Point,
108,Poland,Mikołów,Product Management,14th Floor,74265 Onsgard Terrace,43-196
109,China,Lhasa,Marketing,Suite 88,93737 Texas Street,
110,China,Qingshui,Research and Development,Room 210,85043 High Crossing Plaza,
111,Brazil,Serrinha,Training,16th Floor,67 Golf View Plaza,59258-000
112,China,Weiyang,Engineering,PO Box 47729,9036 Memorial Street,
113,China,Xiwang,Marketing,Suite 69,67 Sugar Road,
114,Indonesia,Keli,Sales,Apt 1763,890 Darwin Alley,
115,Cyprus,Ýpsonas,Services,Suite 40,57 Oakridge Avenue,
116,Tanzania,Bugarama,Accounting,5th Floor,0827 Chinook Road,
117,Indonesia,Bangunsari,Training,17th Floor,4 Tennyson Crossing,
118,Colombia,Paicol,Marketing,PO Box 62208,8544 Bartillon Park,415047
119,Philippines,Batobato,Accounting,Room 1111,359 Mccormick Street,1091
120,China,Xinmen,Support,Suite 88,612 Vernon Junction,
121,France,Saint-Avold,Human Resources,Apt 7,05861 Granby Street,57509 CEDEX
122,France,Bayonne,Marketing,Apt 775,828 Grim Alley,64185 CEDEX
123,China,Daxindian,Accounting,Apt 1888,575 Stephen Place,
124,Portugal,Aguiar da Beira,Training,Apt 1133,550 Kim Way,3570-014
125,China,Jiangtun,Sales,Suite 81,60 Mandrake Plaza,
126,Indonesia,Paledang,Training,18th Floor,6317 Loomis Point,
127,Cuba,Baraguá,Engineering,8th Floor,66 Reindahl Alley,
128,Philippines,Tigbaw,Human Resources,Suite 34,84 Rutledge Road,1715
129,Greece,Patrída,Services,PO Box 95304,7366 Comanche Court,
130,Indonesia,Tuateta,Human Resources,19th Floor,8 Lighthouse Bay Circle,
131,China,Sanguansi,Sales,PO Box 25497,62489 Farragut Parkway,
132,Philippines,Talangnan,Business Development,Apt 525,888 Oriole Circle,6028
133,Netherlands,Zaandam,Engineering,Room 1400,34079 Arkansas Drive,1504
134,Serbia,Svilajnac,Human Resources,17th Floor,00 Miller Trail,
135,Greece,Vrachnaíika,Support,4th Floor,78267 Farmco Park,
136,Poland,Nowy Dwór Mazowiecki,Legal,Room 1354,5506 Mesta Pass,05-160
137,Poland,Kobylanka,Legal,Apt 1517,02 Moose Alley,73-108
138,Russia,Isheyevka,Business Development,Room 720,13 Rutledge Pass,433310
139,Germany,Ludwigshafen am Rhein,Support,Room 945,4355 Alpine Street,67067
140,Russia,Semënovskoye,Training,Room 1626,9 Memorial Terrace,142817
141,Brazil,Itambacuri,Research and Development,Apt 1025,427 Hooker Lane,39830-000
142,Ivory Coast,San-Pédro,Human Resources,10th Floor,0459 Oak Center,
143,Croatia,Privlaka,Product Management,Suite 99,74 Clarendon Way,32251
144,Thailand,Chanuman,Engineering,PO Box 86445,882 Comanche Hill,34260
145,Russia,Volokonovka,Accounting,Suite 59,95037 Scoville Park,457151
146,Norway,Oslo,Business Development,PO Box 90624,9 Macpherson Court,0216
147,Thailand,Nong Khaem,Services,Suite 46,1176 Schmedeman Trail,10160
148,Slovakia,Bratislava,Legal,Suite 53,0 Havey Park,851 03
149,Canada,Armstrong,Human Resources,PO Box 46850,7 Kennedy Lane,M9R
150,Peru,Ambar,Research and Development,2nd Floor,6465 Steensland Street,
151,Ukraine,Tlumach,Product Management,Suite 30,48 Maple Wood Lane,
152,China,Huyu,Support,15th Floor,370 School Circle,
153,Croatia,Vukojevci,Product Management,Suite 21,7310 Butterfield Place,31500
154,Indonesia,Wonodadi,Sales,Apt 1253,8032 Aberg Court,
155,China,Xinjian,Sales,Suite 72,144 Knutson Plaza,
156,Colombia,Mistrató,Research and Development,Room 701,909 Westend Street,664028
157,Democratic Republic of the Congo,Mushie,Support,PO Box 99251,53 Beilfuss Way,
158,Czech Republic,Karlovy Vary,Engineering,Suite 88,21048 Ridgeway Crossing,360 01
159,Brazil,Celso Ramos,Accounting,Apt 290,16 Northport Trail,88598-000
160,Indonesia,Babakansalam,Services,PO Box 39800,496 Jenna Pass,
161,France,Chilly-Mazarin,Sales,PO Box 75987,057 Eastwood Drive,91384 CEDEX
162,Libya,Waddān,Training,12th Floor,4518 Di Loreto Avenue,
163,Ukraine,Starychi,Sales,Suite 60,14727 Arizona Pass,
164,China,Shiziqiao,Research and Development,Suite 61,4 Hoard Junction,
165,China,Biqiao,Marketing,Apt 1210,7 Schiller Crossing,
166,Pakistan,Pahārpur,Training,Apt 1929,71615 Harbort Way,12251
167,Indonesia,Sumuragung,Accounting,PO Box 45938,32645 Warbler Park,
168,France,Rueil-Malmaison,Sales,Room 293,41937 Hagan Plaza,92848 CEDEX
169,Indonesia,Selorejo,Legal,Apt 1476,997 Crownhardt Drive,
170,Vietnam,Thanh Khê,Legal,Suite 15,244 Schurz Plaza,
171,Brazil,São Bento do Sul,Accounting,3rd Floor,501 Carey Plaza,89290-000
172,Indonesia,Fatumuti,Engineering,12th Floor,4605 Eggendart Point,
173,United States,Cincinnati,Engineering,9th Floor,7 Starling Court,45218
174,Indonesia,Wahawaha,Business Development,Suite 93,4 Dixon Lane,
175,France,Étampes,Engineering,12th Floor,16 Spohn Way,91154 CEDEX
176,Indonesia,Alung,Human Resources,Room 1474,7 Canary Alley,
177,Sweden,Söderköping,Sales,Apt 1466,14 Reindahl Trail,614 94
178,Bulgaria,Kavarna,Research and Development,18th Floor,697 Ilene Pass,9656
179,China,Shewopo,Product Management,Apt 1681,4070 Starling Plaza,
180,Indonesia,Balai,Sales,9th Floor,295 Sundown Terrace,
181,Japan,Namerikawa,Services,4th Floor,92 Upham Parkway,315-0022
182,Indonesia,Oemofa,Legal,PO Box 9628,1156 Mallory Street,
183,China,Pingshi,Sales,14th Floor,0 Rockefeller Hill,
184,Argentina,San Isidro,Support,Suite 21,931 Fieldstone Avenue,4124
185,Philippines,Bicos,Human Resources,Suite 54,97 Mesta Drive,3126
186,United States,Sacramento,Training,Suite 27,63 Bunting Hill,94273
187,Indonesia,Sridadi,Research and Development,1st Floor,8668 7th Center,
188,Chile,Valparaíso,Marketing,Room 27,1468 Meadow Valley Circle,
189,Greece,Anávra,Support,10th Floor,23388 Prairie Rose Court,
190,Russia,Olenyok,Product Management,Suite 52,7 Bunker Hill Avenue,641023
191,Philippines,Santo Domingo,Legal,Suite 8,74979 Kings Crossing,4508
192,Argentina,Cruz del Eje,Product Management,Apt 532,87 Erie Avenue,5280
193,Mozambique,Cuamba,Engineering,Suite 40,3148 Sauthoff Avenue,
194,Indonesia,Sungi Liput,Product Management,Room 597,77 Brown Junction,
195,China,Shanghuang,Research and Development,PO Box 53483,13 High Crossing Center,
196,United States,Sacramento,Support,Apt 1477,3 Bay Crossing,95833
197,Indonesia,Leran Wetan,Sales,14th Floor,30 Forster Trail,
198,China,Dongxiao,Training,Room 52,366 La Follette Drive,
199,China,Tantu,Legal,Room 1223,8 Holy Cross Parkway,
200,Thailand,Wang Saphung,Human Resources,Apt 918,7 Bellgrove Crossing,42130
201,Ukraine,Popil'nya,Research and Development,Room 1956,81 Harper Lane,
202,Canada,Amos,Legal,Suite 74,8847 Dorton Way,J9T
203,Ukraine,Nikopol’,Research and Development,3rd Floor,95681 Northridge Lane,
204,China,Xinzhuang,Business Development,Apt 987,07127 Talisman Point,
205,Albania,Xhafzotaj,Engineering,Room 1699,368 Victoria Trail,
206,Malawi,Chipyela,Services,5th Floor,47898 Shelley Avenue,
207,Bangladesh,Burhānuddin,Support,PO Box 983,7 Northland Parkway,4743
208,Indonesia,Ciburial,Engineering,Apt 602,981 Longview Point,
209,Indonesia,Suban Jeriji,Marketing,Room 37,5528 Merry Point,
210,China,Pingpo,Business Development,PO Box 74115,0 Sage Hill,
211,China,Zhongba,Human Resources,Suite 31,8 Sunnyside Trail,
212,Ukraine,Nedryhayliv,Engineering,Suite 10,99692 Montana Place,
213,China,Sanshengyuan,Marketing,10th Floor,04895 Kenwood Place,
214,Malta,Santa Luċija,Human Resources,Apt 1935,8819 Portage Park,SLC
215,Russia,Pristen’,Accounting,Room 1847,6013 Monica Plaza,306205
216,France,Saint-Laurent-Blangy,Engineering,Apt 73,69 Barby Place,62055 CEDEX
217,Indonesia,Sedayulawas,Accounting,Apt 156,46519 Rutledge Junction,
218,Paraguay,Horqueta,Accounting,Suite 82,7785 Graedel Way,
219,Macedonia,Centar Župa,Business Development,17th Floor,74 Northwestern Terrace,1239
220,Brazil,Montenegro,Product Management,PO Box 10332,48381 Village Green Circle,95780-000
221,Poland,Krzynowłoga Mała,Product Management,Room 676,911 Lakeland Point,06-316
222,Sweden,Färjestaden,Support,PO Box 27872,20 Carey Trail,386 94
223,Indonesia,Puspajaya,Engineering,Room 908,80 Harbort Way,
224,Brazil,Louveira,Product Management,17th Floor,629 Farragut Trail,13290-000
225,Croatia,Karlobag,Business Development,Apt 651,596 Bayside Lane,53288
226,Bolivia,San Pedro,Business Development,Suite 94,4 La Follette Drive,
227,France,Nice,Business Development,14th Floor,7 Graceland Plaza,06102 CEDEX 2
228,China,Jingcheng,Product Management,Apt 677,63 Cordelia Hill,
229,China,Hanyuan,Human Resources,Room 1444,371 Northwestern Park,
230,Bolivia,Mairana,Human Resources,Suite 38,9 Dayton Place,
231,China,Daixi,Legal,20th Floor,310 Truax Alley,
232,China,Yuanjiazhuang,Business Development,PO Box 53383,0 Bowman Drive,
233,Ireland,Castleknock,Sales,Suite 36,838 Spenser Pass,K78
234,Mexico,Los Fresnos,Human Resources,Suite 100,9394 Valley Edge Circle,88290
235,Portugal,Reriz,Sales,Room 962,5683 Pleasure Alley,3600-587
236,Zambia,Luwingu,Support,PO Box 35377,0190 Lillian Drive,
237,Azerbaijan,Şirvan,Support,Apt 264,15084 Hanover Circle,
238,China,Cuozheqiangma,Marketing,Apt 153,24 Graceland Court,
239,Sweden,Storuman,Research and Development,Apt 828,1 Independence Center,923 24
240,Indonesia,Kalate,Marketing,Suite 58,248 Merry Lane,
241,Czech Republic,Měřín,Research and Development,Room 1291,02 Fieldstone Way,594 42
242,Madagascar,Tsiombe,Support,Room 431,6806 Valley Edge Junction,
243,Nigeria,Wurno,Product Management,1st Floor,6972 Annamark Pass,
244,China,Aqqan,Training,PO Box 7899,70484 Chive Place,
245,Russia,Svetogorsk,Research and Development,Suite 39,8 Menomonie Hill,188992
246,China,Qiqin,Engineering,Room 1387,7345 Forster Place,
247,China,Tangwei,Support,Suite 55,8121 Elka Terrace,
248,Indonesia,Talawi,Services,Apt 1285,45584 Reinke Road,
249,Indonesia,Sindangsari,Business Development,PO Box 83309,72 Huxley Terrace,
250,Nigeria,Dankama,Human Resources,11th Floor,258 Dunning Crossing,
251,Mexico,Benito Juarez,Support,Apt 734,6946 Grover Place,88930
252,Russia,Ilek,Legal,Room 1622,366 Shasta Junction,461369
253,Thailand,Kathu,Accounting,20th Floor,391 Lotheville Lane,83120
254,Russia,Podgornoye,Research and Development,Room 1020,335 Walton Court,396564
255,Uganda,Kabale,Marketing,20th Floor,1 Meadow Valley Court,
256,Japan,Kozakai-chō,Product Management,Suite 54,7 Mitchell Crossing,442-0889
257,Sweden,Helsingborg,Services,20th Floor,264 Service Place,252 20
258,Brazil,Simão Dias,Product Management,Room 1057,74694 Twin Pines Drive,49480-000
259,China,Boyu,Training,PO Box 27801,05061 Mcbride Way,
260,Colombia,Aldana,Accounting,Suite 77,957 Packers Terrace,524547
261,Indonesia,Tinumpuk,Human Resources,Room 638,73 Harper Circle,
262,China,Xiangdong,Engineering,Room 1193,91 Bartillon Road,
263,Sweden,Arvika,Marketing,Suite 59,79 Riverside Alley,671 60
264,China,Taoyuan,Marketing,Room 1244,3365 Holy Cross Court,
265,Serbia,Platičevo,Business Development,PO Box 67519,4 5th Terrace,
266,China,Leidian,Marketing,13th Floor,5299 Lakewood Gardens Trail,
267,China,Ningxi,Legal,20th Floor,5 Pepper Wood Crossing,
268,Indonesia,Kubangeceng,Services,Apt 357,4 Iowa Trail,
269,Benin,Nikki,Engineering,PO Box 79104,5 Michigan Hill,
270,Malta,Santa Luċija,Human Resources,11th Floor,8540 Anthes Plaza,SLC
271,Philippines,Maloco,Accounting,Apt 1364,79 Hovde Park,5613
272,China,Qingguang,Business Development,Suite 16,768 Garrison Parkway,
273,Poland,Trzcinica,Training,6th Floor,35738 Sloan Alley,63-620
274,Indonesia,Ngondokandawu,Human Resources,16th Floor,23 Delaware Road,
275,Syria,As Sukhnah,Legal,Suite 59,1343 Brown Hill,
276,Portugal,Arnoia,Services,13th Floor,740 Starling Terrace,4890-055
277,Albania,Sevaster,Training,Room 1445,28 Sherman Drive,
278,Brazil,Campo Belo,Training,Apt 23,3710 6th Drive,37270-000
279,Sweden,Vällingby,Sales,Room 700,81088 Holmberg Lane,162 15
280,Maldives,Open Stage,Human Resources,PO Box 22576,4 Morning Circle,
281,Brazil,Água Preta,Accounting,PO Box 19272,21 Randy Court,55550-000
282,Yemen,Ḩawf,Accounting,Room 772,50 Bayside Way,
283,Honduras,Corquín,Product Management,PO Box 59834,8789 Eagle Crest Circle,
284,China,Taoyao,Accounting,Room 620,282 Nancy Way,
285,Poland,Fabianki,Services,PO Box 9707,2181 Arrowood Hill,87-811
286,Indonesia,Gedongmulyo,Support,PO Box 84550,251 Hoard Point,
287,Mexico,San Agustin,Accounting,Apt 144,4309 Ridgeway Drive,29480
288,China,Zengguang,Training,PO Box 2014,1 Brickson Park Alley,
289,Nigeria,Amassoma,Services,Room 1382,2 Fair Oaks Alley,
290,Estonia,Kärdla,Marketing,Suite 79,74606 Holy Cross Pass,
291,Colombia,Ospina,Training,PO Box 57217,3 Hanson Crossing,523047
292,Japan,Sakado,Services,PO Box 91083,867 Texas Hill,929-0417
293,Czech Republic,Zásmuky,Training,PO Box 14991,72286 Lukken Junction,281 44
294,Poland,Maszkienice,Human Resources,PO Box 83784,13709 Reindahl Alley,32-854
295,China,Yantak,Support,Suite 96,1 Riverside Park,
296,Russia,Barnaul,Accounting,3rd Floor,7 Logan Road,656008
297,Peru,Yanac,Sales,3rd Floor,39449 Donald Trail,
298,Norway,Haugesund,Research and Development,Room 385,3 Westridge Pass,5532
299,China,Futu,Sales,7th Floor,739 Graedel Drive,
300,Poland,Sierakowice,Marketing,PO Box 82062,03 Golden Leaf Circle,83-340
301,Finland,Elimäki,Sales,Suite 36,32028 High Crossing Lane,47201
302,Czech Republic,Šluknov,Human Resources,PO Box 40696,103 Hooker Avenue,407 77
303,Morocco,Arbaoua,Legal,Apt 252,2 Havey Alley,
304,Indonesia,Muncar,Research and Development,18th Floor,14 Toban Circle,
305,Ecuador,Celica,Legal,Suite 72,6 Buell Street,
306,Ukraine,Velyka Bilozerka,Marketing,PO Box 26367,31 Stang Crossing,
307,China,Yuanyang Zhen,Accounting,Apt 1232,231 Dwight Trail,
308,Indonesia,Kedungcangkring,Accounting,Suite 36,56 Ronald Regan Crossing,
309,Japan,Usuki,Sales,PO Box 84080,9864 Bayside Parkway,890-0073
310,China,Mataigou,Marketing,Apt 50,3988 Nelson Trail,
311,Italy,Trieste,Engineering,Suite 96,02227 Barby Terrace,34129
312,France,Rennes,Services,Suite 27,0 Crest Line Pass,35033 CEDEX 9
313,Peru,Curibaya,Support,14th Floor,28754 Autumn Leaf Crossing,
314,Cuba,Ciego de Ávila,Support,14th Floor,30 Bobwhite Court,
315,China,Caofang,Business Development,Apt 1869,0 North Parkway,
316,Germany,Osnabrück,Support,Apt 1746,5 Armistice Circle,49082
317,Poland,Laszki,Accounting,1st Floor,3 Lighthouse Bay Lane,37-543
318,China,Ulashan,Sales,3rd Floor,13038 Lighthouse Bay Crossing,
319,Indonesia,Mlawat,Engineering,Apt 130,7 Anhalt Court,
320,Brazil,Paraíba do Sul,Product Management,Room 1721,5290 Rowland Pass,25850-000
321,United States,Jacksonville,Product Management,Room 202,9 Prairie Rose Alley,32236
322,Yemen,At Taḩālif,Training,Suite 76,51930 Sunfield Street,
323,Macedonia,Strumica,Legal,PO Box 39530,4781 Eggendart Trail,2400
324,Indonesia,Krajan Suko Kidul,Support,Room 1833,8895 Grasskamp Place,
325,Zimbabwe,Chitungwiza,Training,PO Box 42555,784 Coolidge Court,
326,Ukraine,Izyum,Human Resources,Suite 27,67 Kensington Lane,
327,Kenya,Maralal,Product Management,Room 114,11 Ridgeview Way,
328,Indonesia,Plandirejo,Services,PO Box 49459,0396 Lindbergh Drive,
329,China,Hekou,Business Development,Apt 1307,57 2nd Avenue,
330,Portugal,Carregado,Engineering,Room 1941,7615 Stang Plaza,2580-466
331,Yemen,Al Qaţn,Accounting,Room 1792,22015 Bonner Lane,
332,France,Chaumont,Research and Development,PO Box 87491,0 Prairie Rose Hill,52915 CEDEX 9
333,Indonesia,Amuntai,Business Development,Apt 1152,50 Harper Junction,
334,Armenia,Saratak,Accounting,Apt 912,9658 Muir Road,
335,Indonesia,Gununglarang,Services,PO Box 99311,03 Portage Plaza,
336,Argentina,La Falda,Research and Development,Suite 4,088 Columbus Park,4640
337,Sweden,Bromma,Sales,Room 961,83590 Fuller Pass,167 37
338,Portugal,Pedrogão,Training,Suite 99,69888 Meadow Valley Court,6090-425
339,South Korea,Hajeom,Sales,8th Floor,2 Petterle Point,
340,Russia,Tyrnyauz,Business Development,PO Box 14305,20 Meadow Ridge Plaza,361624
341,Sweden,Karlskoga,Support,PO Box 26125,895 Anderson Park,691 41
342,Bolivia,Villa Serrano,Engineering,Suite 87,0105 Michigan Park,
343,Malta,Luqa,Business Development,Suite 5,49513 Kennedy Lane,LQA
344,Belize,Punta Gorda,Accounting,Room 252,739 Russell Trail,
345,China,Kangping,Services,9th Floor,512 Lotheville Plaza,
346,Croatia,Nijemci,Sales,Room 799,10504 Dexter Court,32245
347,China,Qingkou,Training,PO Box 43951,2839 Lien Circle,
348,Armenia,Shahumyan,Services,Room 1366,73881 Clarendon Pass,
349,Saint Pierre and Miquelon,Saint-Pierre,Human Resources,Suite 28,267 Dorton Trail,97500
350,Vietnam,Núi Đối,Support,Apt 338,468 Schiller Place,
351,Indonesia,Penang,Services,11th Floor,2341 Orin Way,
352,China,Langqi,Engineering,Room 1953,0088 Arkansas Plaza,
353,Peru,Quivilla,Services,Room 1365,7610 Hoepker Center,
354,Portugal,Outeiro de Polima,Accounting,Apt 11,4829 Delaware Circle,2785-505
355,Indonesia,Soko,Accounting,PO Box 85092,6902 Hallows Alley,
356,Japan,Ibusuki,Sales,15th Floor,7 Cherokee Parkway,574-0072
357,Madagascar,Antalaha,Marketing,12th Floor,23487 Vahlen Point,
358,Philippines,Tapilon,Services,PO Box 50866,59 Cambridge Street,6013
359,China,Enhe Hada,Research and Development,PO Box 9034,4 Badeau Parkway,
360,Russia,Nal’chik,Product Management,PO Box 41506,1749 Shopko Street,361424
361,Russia,Psygansu,Marketing,Suite 81,62552 Glacier Hill Place,361326
362,Indonesia,Susunan,Services,PO Box 93891,24400 Fuller Alley,
363,Tunisia,Mateur,Human Resources,Suite 27,5 Center Hill,
364,China,Taochuan,Business Development,Room 1013,99878 Bunker Hill Junction,
365,Canada,Sainte-Agathe-des-Monts,Sales,PO Box 31557,6 South Pass,J8C
366,Greece,Spárti,Human Resources,Room 1401,14429 Fremont Crossing,
367,Russia,Vereshchagino,Training,Suite 84,846 Shoshone Point,303642
368,Indonesia,Jamban,Product Management,PO Box 34130,5412 Dexter Street,
369,Colombia,Juan de Acosta,Research and Development,Room 623,52993 Derek Drive,081048
370,Indonesia,Manganitu,Support,Suite 41,00643 Fieldstone Pass,
371,Czech Republic,Hevlín,Sales,Suite 8,6 Merrick Crossing,671 69
372,China,Hecun,Research and Development,Suite 50,288 Marquette Way,
373,China,Lidu,Accounting,PO Box 51688,36211 Birchwood Hill,
374,Armenia,Vardablur,Support,Apt 14,9297 Barby Avenue,
375,Cuba,Matanzas,Legal,3rd Floor,468 Bonner Junction,
376,Indonesia,Angkup,Training,PO Box 81611,9039 Pennsylvania Terrace,
377,Canada,Nipawin,Marketing,4th Floor,635 Dahle Point,V9B
378,Argentina,Del Campillo,Support,Room 240,36820 Colorado Point,6271
379,Yemen,Al Munīrah,Human Resources,6th Floor,258 Claremont Road,
380,Indonesia,Pamakayo,Sales,9th Floor,6 Kings Park,
381,Ukraine,Novovasylivka,Research and Development,8th Floor,00 Quincy Park,
382,Cameroon,Bertoua,Business Development,Apt 752,5 Prentice Point,
383,Indonesia,Kampungbaru,Business Development,Room 1999,7 Miller Terrace,
384,Ukraine,Hubynykha,Training,Suite 69,36 Sutherland Point,
385,Portugal,Ribeiro,Services,Apt 1915,2 International Trail,4520-712
386,Indonesia,Warung Wetan,Business Development,PO Box 78432,17 Di Loreto Terrace,
387,China,Laojieji,Accounting,Room 1415,97 Merchant Trail,
388,East Timor,Aileu,Research and Development,Apt 805,4446 Beilfuss Lane,
389,Indonesia,Kotakaya Dua,Human Resources,Suite 26,0980 Crescent Oaks Way,
390,Russia,Slobodskoy,Marketing,Apt 29,46536 Northridge Junction,613155
391,Philippines,Anahawan,Services,Apt 154,4412 Parkside Street,6610
392,Venezuela,Ciudad Bolívar,Product Management,PO Box 13905,79 Lien Pass,
393,Montenegro,Mataguži,Sales,Apt 114,996 Lotheville Drive,
394,Sweden,Gävle,Legal,PO Box 90245,8677 West Junction,802 66
395,Ireland,Kilmacanoge,Sales,Suite 72,5 Rockefeller Parkway,A98
396,Greece,Astypálaia,Legal,Room 100,5856 1st Alley,
397,Guatemala,San Miguel Ixtahuacán,Training,Suite 64,56 Clemons Lane,12006
398,Iran,Behbahān,Product Management,PO Box 2289,1 Warbler Parkway,
399,China,Xindi,Business Development,Apt 756,46244 Jana Place,
400,China,Tielu,Research and Development,Suite 6,84 Schlimgen Circle,
401,South Africa,Lebowakgomo,Business Development,PO Box 43958,8 Lakeland Circle,9640
402,Poland,Dębe Wielkie,Marketing,10th Floor,3 Michigan Junction,05-311
403,Portugal,Vendas de Galizes,Marketing,Room 1921,9 Bartelt Circle,3400-498
404,United States,Boca Raton,Engineering,Suite 69,34 Maryland Point,33499
405,China,Huixing,Business Development,Suite 28,57765 Oriole Crossing,
406,China,Shangpai,Engineering,PO Box 99937,49400 Canary Crossing,
407,Poland,Świętajno,Business Development,Room 763,26371 Mandrake Point,19-411
408,Mayotte,Tsingoni,Services,14th Floor,3413 Johnson Place,97680
409,Philippines,Guimba,Business Development,Room 189,93079 Union Point,3115
410,Poland,Lubochnia,Research and Development,Room 748,5135 Fairview Hill,97-217
411,Czech Republic,Kašperské Hory,Services,11th Floor,33642 Caliangt Point,341 92
412,France,Suresnes,Accounting,Apt 1977,22197 Green Point,92154 CEDEX
413,Sudan,Umm Kaddadah,Business Development,Suite 95,9235 Schlimgen Parkway,
414,Hong Kong,Tsuen Wan,Accounting,Apt 1568,9 Armistice Terrace,
415,Syria,Khanāşir,Product Management,Apt 1498,33 Butternut Crossing,
416,Bulgaria,Svilengrad,Research and Development,5th Floor,02 Schurz Point,6500
417,Indonesia,Tais,Accounting,Suite 77,85 Carberry Pass,
418,El Salvador,San Marcos,Accounting,Suite 28,35679 Sutteridge Junction,
419,China,Gulao,Legal,Apt 1154,1873 Iowa Center,
420,Nigeria,Ifon,Product Management,Suite 48,0718 Hazelcrest Trail,
421,China,Kongjiafang,Training,Suite 77,27 Dexter Center,
422,Indonesia,Jenggawah,Business Development,Room 849,8 Fordem Drive,
423,Czech Republic,Borek,Sales,Room 463,87829 Fulton Hill,512 63
424,Libya,Nālūt,Engineering,PO Box 57865,83763 Monterey Plaza,
425,China,Jianggu,Engineering,11th Floor,62 Glacier Hill Alley,
426,North Korea,Anbyŏn-ŭp,Marketing,PO Box 86194,24 Monument Pass,
427,Russia,Vladivostok,Business Development,8th Floor,65 Hallows Road,690880
428,China,Qingtong,Engineering,Suite 54,292 Rusk Street,
429,Malawi,Mzuzu,Business Development,PO Box 94965,6436 Vera Junction,
430,Russia,Buynaksk,Accounting,Suite 19,31 Lighthouse Bay Trail,368222
431,Palestinian Territory,Jūrīsh,Human Resources,Suite 70,22631 Boyd Hill,
432,Peru,Morropón,Legal,Room 1729,757 Oxford Drive,
433,Indonesia,Kumai,Legal,Room 1203,5 Springview Plaza,
434,China,Jiangyi,Business Development,Apt 1130,5924 Superior Trail,
435,China,Huangjin,Business Development,PO Box 86392,29 Walton Point,
436,Russia,Novki,Product Management,7th Floor,74224 Londonderry Hill,601340
437,Brazil,Pirapozinho,Accounting,PO Box 11037,73 Mitchell Lane,19200-000
438,Russia,Burmakino,Business Development,Suite 12,0 Montana Point,152295
439,Poland,Waśniów,Engineering,Apt 1415,3514 Mitchell Place,27-425
440,China,Heimahe,Training,Apt 761,5 Fordem Trail,
441,Japan,Yachimata,Research and Development,Room 49,85879 Hooker Center,289-1211
442,Indonesia,Suwaduk,Legal,PO Box 78144,08375 Chinook Center,
443,Nigeria,Kiyawa,Accounting,Apt 1576,6806 South Crossing,
444,Brazil,Ribeirão Pires,Training,PO Box 29486,68 Manufacturers Plaza,09400-000
445,Sweden,Stockholm,Support,PO Box 96315,0717 Hayes Pass,120 30
446,China,Hualin,Product Management,Suite 58,004 Mccormick Point,
447,Indonesia,Kangin,Human Resources,PO Box 6784,6 Riverside Hill,
448,Mexico,Bellavista,Accounting,Apt 20,787 Montana Road,37360
449,Indonesia,Banjar Yehsatang,Legal,PO Box 29720,4702 Dapin Parkway,
450,China,Xiangba,Support,16th Floor,3 Roth Park,
451,Poland,Trzcinica,Human Resources,PO Box 29219,52796 Granby Plaza,63-620
452,China,Huangjiazhai,Support,Room 1150,755 6th Terrace,
453,Nigeria,Okuta,Legal,15th Floor,51 Sheridan Pass,
454,Nepal,Bharatpur,Services,10th Floor,8414 Lakewood Gardens Drive,
455,Indonesia,Sopo,Research and Development,7th Floor,54 Vera Place,
456,Burkina Faso,Diébougou,Marketing,PO Box 27919,6 Clyde Gallagher Parkway,
457,France,Charleville-Mézières,Training,Room 922,2 Cordelia Way,08107 CEDEX
458,Colombia,Arauca,Business Development,11th Floor,90 Mendota Plaza,810009
459,Sweden,Luleå,Engineering,15th Floor,46 Surrey Drive,971 29
460,Indonesia,Praya,Support,3rd Floor,9 Caliangt Lane,
461,Indonesia,Jeponkrajan,Product Management,Suite 86,4172 Aberg Point,
462,Russia,Temizhbekskaya,Human Resources,PO Box 36663,6 Dapin Alley,352177
463,Russia,Lyubim,Services,Room 1753,32898 Thierer Street,152470
464,Iraq,Al ‘Awjah,Research and Development,16th Floor,466 Nobel Court,
465,China,Nanjin,Business Development,Apt 1851,6702 Blackbird Hill,
466,Nigeria,Onitsha,Legal,Suite 11,488 Nova Pass,
467,China,Shuanghekou,Human Resources,16th Floor,516 Russell Road,
468,Ireland,Templeogue,Engineering,PO Box 24884,5027 Fair Oaks Park,D6W
469,Hungary,Budapest,Product Management,Apt 314,6818 Drewry Parkway,1122
470,Belarus,Hantsavichy,Services,Apt 791,033 Dahle Hill,
471,Poland,Siekierczyn,Training,Apt 1361,5 New Castle Place,59-818
472,Indonesia,Tigarunggu,Support,Suite 5,50 Huxley Alley,
473,Philippines,Nalsian Norte,Research and Development,Room 395,4014 Bartillon Place,2424
474,Indonesia,Marabahan,Engineering,Room 889,573 Larry Way,
475,Colombia,Ubaté,Engineering,PO Box 72372,85 Mallory Point,250437
476,Venezuela,Biscucuy,Engineering,Room 330,46354 West Way,
477,Indonesia,Muara Sabak,Engineering,PO Box 31341,28948 High Crossing Pass,
478,Serbia,Doroslovo,Business Development,Suite 91,7 Carpenter Way,
479,China,Baoxing,Marketing,Suite 64,7653 Heath Lane,
480,Russia,Bogovarovo,Support,PO Box 13514,905 Granby Point,157780
481,Guatemala,San Luis,Human Resources,Suite 80,939 Declaration Center,17009
482,Poland,Wiśniewo,Research and Development,10th Floor,1 Memorial Pass,06-521
483,Nigeria,Yamrat,Research and Development,Apt 1542,99372 Harbort Court,
484,Philippines,Tinalmud,Product Management,Suite 46,0109 Mayfield Terrace,1531
485,Indonesia,Timba Lauk,Services,Apt 266,8851 Eagle Crest Terrace,
486,South Africa,Koffiefontein,Human Resources,4th Floor,1 Darwin Park,9987
487,China,Xitiangezhuang,Support,Suite 99,419 Mesta Point,
488,Russia,Chastyye,Business Development,2nd Floor,56 Annamark Pass,617191
489,Croatia,Komletinci,Training,18th Floor,83805 Calypso Park,32253
490,Poland,Maszkienice,Support,Room 921,2221 Beilfuss Parkway,32-854
491,Peru,Accha,Sales,Apt 1582,3 Fairview Alley,
492,China,Changbai,Product Management,2nd Floor,49251 Leroy Center,
493,Jamaica,Saint Ann’s Bay,Legal,Room 1534,85 Katie Pass,
494,Ukraine,Krasnodon,Human Resources,Suite 60,72 Golf Course Hill,
495,Colombia,Yarumal,Marketing,PO Box 59451,3359 Schurz Street,052038
496,Sri Lanka,Moratuwa,Accounting,PO Box 81083,7 La Follette Terrace,10400
497,Greece,Agía Varvára,Training,PO Box 94890,05 Esker Crossing,
498,China,Zhushan,Accounting,Suite 49,495 Summer Ridge Crossing,
499,Argentina,Achiras,Accounting,Room 1249,95 Washington Street,3246
500,Indonesia,Uluarang,Sales,Suite 48,6 Independence Pass,
501,Indonesia,Bendilwungu Lor,Support,Apt 228,603 Longview Avenue,
502,Philippines,Looc,Training,Apt 1880,1390 Roxbury Court,5507
503,China,Turgun,Business Development,PO Box 99970,5059 Bunting Avenue,
504,Afghanistan,Jawand,Support,Suite 52,74311 Summer Ridge Street,
505,Uganda,Kaabong,Marketing,19th Floor,057 Hagan Circle,
506,Poland,Radocza,Research and Development,PO Box 55455,8 Kings Street,34-105
507,Czech Republic,Otaslavice,Human Resources,Room 669,3 Ridgeview Terrace,798 06
508,Lithuania,Kudirkos Naumiestis,Legal,18th Floor,95 Coleman Park,71049
509,Barbados,Bridgetown,Legal,Room 1434,37957 Morning Hill,
510,Poland,Koszarawa,Accounting,Apt 798,201 Fisk Crossing,34-332
511,Japan,Nanao,Services,Room 390,998 Rigney Trail,926-0867
512,Philippines,Banaba,Marketing,Suite 32,2 Bartelt Road,4224
513,Sweden,Stockholm,Training,PO Box 49995,1758 Holy Cross Court,114 89
514,Poland,Potok Złoty,Services,PO Box 91114,0233 Sloan Point,02-913
515,Kazakhstan,Tekeli,Legal,Suite 77,9452 Monterey Terrace,
516,China,Shangzhuang,Legal,Room 1412,9823 Helena Way,
517,Colombia,Ibagué,Support,Apt 1178,18 Prentice Hill,730019
518,United States,Chicago,Sales,Apt 471,68607 Bunting Hill,60609
519,Nigeria,Ruma,Sales,PO Box 3461,18 Dayton Drive,
520,Yemen,Al Matūn,Training,Room 1255,15 1st Plaza,
521,Indonesia,Waerana,Business Development,9th Floor,32428 Weeping Birch Way,
522,China,Pingdingshan,Legal,PO Box 27915,03 5th Alley,
523,Colombia,Bagadó,Research and Development,Apt 1534,9728 Kinsman Lane,271058
524,China,Jiangkou,Human Resources,Suite 19,230 Veith Alley,
525,Indonesia,Tanjung Raja,Training,Suite 38,199 Old Shore Park,
526,China,Taiyang,Accounting,20th Floor,47578 Manley Place,
527,China,Zhishan,Marketing,Apt 1596,6027 Fulton Point,
528,Philippines,Carmen,Marketing,9th Floor,4328 Monument Point,9408
529,Japan,Toyohashi,Business Development,Apt 137,025 Garrison Avenue,393-0001
530,China,Shuntian,Services,Suite 22,60475 Summer Ridge Lane,
531,Nigeria,Ringim,Marketing,Suite 41,83887 Lien Trail,
532,Bosnia and Herzegovina,Mejdan - Obilićevo,Legal,Suite 5,3 Lake View Pass,
533,French Guiana,Kourou,Training,Apt 354,9752 Straubel Plaza,97374 CEDEX
534,Macedonia,Ранковце,Sales,Suite 60,7840 Emmet Plaza,1316
535,Portugal,Melres,Research and Development,Suite 51,90 Oakridge Street,4515-465
536,Germany,Münster,Business Development,1st Floor,03821 Karstens Terrace,48161
537,China,Sishui,Business Development,Apt 805,3 Lakewood Gardens Junction,
538,Spain,Granada,Research and Development,1st Floor,49548 Bluejay Alley,18015
539,Madagascar,Ihosy,Research and Development,5th Floor,849 Sundown Place,
540,Portugal,Vila Franca,Sales,Room 733,2 Ridgeview Hill,4935-621
541,Philippines,Tubigan,Legal,PO Box 33708,16 East Lane,9022
542,Philippines,Maria Cristina,Product Management,4th Floor,9 Heffernan Junction,9201
543,Indonesia,Juwana,Engineering,Room 599,59046 Victoria Avenue,
544,China,Baisha,Marketing,Apt 1533,5236 Longview Place,
545,Portugal,Vila Nova,Human Resources,PO Box 85001,36158 Delladonna Crossing,4710-627
546,Indonesia,Sua,Support,Apt 1811,304 Holy Cross Lane,
547,Thailand,Ban Talat Bueng,Engineering,PO Box 55795,05 Quincy Point,20170
548,China,Nanshan,Legal,Apt 552,30566 Eagle Crest Junction,
549,China,Weizhou,Sales,PO Box 69941,08 Warbler Hill,
550,Indonesia,Kalipucang,Services,Room 804,92047 Jackson Hill,
551,China,Meilin,Human Resources,PO Box 6933,9 Lindbergh Junction,
552,China,Hongping,Training,17th Floor,0742 Golf Terrace,
553,Sweden,Solna,Human Resources,4th Floor,29080 Dovetail Drive,170 77
554,Cambodia,Phumĭ Véal Srê,Services,PO Box 72147,4 Hoepker Alley,
555,Indonesia,Turus,Support,Room 828,81 International Place,
556,Russia,Issad,Training,16th Floor,259 Stephen Court,187453
557,Indonesia,Kotanopan,Services,Apt 1753,55 Erie Plaza,
558,Republic of the Congo,Madingou,Product Management,Room 1520,90217 West Junction,
559,Canada,Cowansville,Research and Development,Apt 106,93 Clove Drive,J2K
560,Somalia,Xarardheere,Training,Apt 1149,05 Grasskamp Park,
561,China,Yantak,Product Management,Apt 1897,35834 Bayside Court,
562,Brazil,Vigia,Engineering,PO Box 90658,94113 Iowa Plaza,68780-000
563,Albania,Shkodër,Engineering,Suite 90,8153 Sutteridge Court,
564,Portugal,Requião,Marketing,Room 1717,8737 Lawn Crossing,4770-431
565,Indonesia,Jambubol,Training,Apt 1550,08 Continental Road,
566,China,Jingyang,Engineering,Suite 32,7807 Elgar Street,
567,Japan,Nishinoomote,Human Resources,4th Floor,43544 Elgar Circle,891-3101
568,China,Hanting,Human Resources,5th Floor,8067 Riverside Terrace,
569,China,Guanting,Human Resources,5th Floor,6 Hauk Crossing,
570,China,Huanghuai,Human Resources,3rd Floor,9244 Sauthoff Parkway,
571,China,Xiaodukou,Human Resources,Room 887,2775 Heffernan Park,
572,Portugal,Refojos,Training,PO Box 27832,215 American Ash Way,4860-352
573,China,Laixi,Business Development,9th Floor,9 Homewood Plaza,
574,Syria,Aş Şanamayn,Research and Development,PO Box 72545,0325 Shelley Drive,
575,Afghanistan,Dū Qal‘ah,Services,PO Box 9264,45176 Coleman Court,
576,Croatia,Bjelovar,Business Development,Room 726,23 Melrose Street,43000
577,Mexico,San Miguel,Services,16th Floor,35 Sullivan Lane,68540
578,China,Jiangcun,Human Resources,8th Floor,49 Hoard Alley,
579,Ivory Coast,Ferkessédougou,Sales,Apt 105,295 Macpherson Lane,
580,China,Tongjiang,Human Resources,Room 897,96 Corscot Junction,
581,Poland,Leśna Podlaska,Training,Room 548,4236 Cascade Circle,21-542
582,Portugal,Casal do Relvas,Product Management,PO Box 73396,30 Bashford Parkway,2440-341
583,Philippines,Compostela,Product Management,PO Box 86344,9 Southridge Hill,8109
584,Philippines,Gabao,Training,16th Floor,1 American Road,4707
585,Japan,Kanzaki,Product Management,Room 1456,4 Shasta Road,842-0001
586,Philippines,Malabag,Services,Apt 1010,7747 Bluestem Alley,4118
587,Ukraine,Horlivka,Sales,Suite 63,71 Ramsey Way,
588,Indonesia,Mesa,Services,PO Box 19781,0 Fairfield Place,
589,Sweden,Katrineholm,Sales,Room 1708,04305 Park Meadow Plaza,641 36
590,Brazil,Cravinhos,Business Development,19th Floor,005 Cody Hill,14140-000
591,Indonesia,Jembayan Hitam,Product Management,PO Box 37737,43 Maple Wood Place,
592,United States,Saint Petersburg,Services,1st Floor,20653 Bayside Way,33710
593,Brazil,Seropédica,Training,Apt 1499,5 Mifflin Circle,23890-000
594,Indonesia,Sidoger Lebak,Training,Suite 36,12 Quincy Plaza,
595,Russia,Buzuluk,Legal,18th Floor,315 Morrow Lane,461059
596,Peru,Quinuabamba,Business Development,Apt 1082,51 Center Point,
597,Liberia,Gbarnga,Human Resources,PO Box 7146,7922 Goodland Center,
598,Venezuela,Aguasay,Engineering,Suite 45,8804 Lillian Terrace,
599,Peru,Chinchaypujio,Accounting,9th Floor,32 Transport Circle,
600,Poland,Gąbin,Business Development,Room 1366,8669 Russell Avenue,09-530
601,Rwanda,Nzega,Engineering,Suite 60,304 Pleasure Court,
602,Japan,Shingū,Accounting,5th Floor,049 Nova Parkway,813-0044
603,Portugal,Quiaios,Research and Development,19th Floor,5 Wayridge Hill,3080-520
604,Portugal,Real,Support,Room 1153,2033 Katie Road,4750-488
605,Malaysia,Kuantan,Product Management,Apt 1018,07 Red Cloud Alley,25610
606,Indonesia,Pondoktelo,Engineering,Suite 55,65709 Old Gate Court,
607,France,Créteil,Accounting,Apt 1494,47 Merry Avenue,94972 CEDEX 9
608,South Africa,Mandeni,Human Resources,PO Box 33909,2 Briar Crest Parkway,4492
609,Russia,Sheregesh,Marketing,Apt 1214,3 Valley Edge Avenue,660126
610,Brazil,Mauá,Human Resources,Apt 29,9 Carberry Pass,09300-000
611,France,Voiron,Business Development,Suite 13,487 Oakridge Drive,38504 CEDEX
612,China,Gaomiaoji,Sales,PO Box 73872,88681 Mandrake Plaza,
613,Guatemala,Río Hondo,Marketing,PO Box 69797,945 Ruskin Pass,19003
614,Indonesia,Sumurber,Product Management,Suite 75,93947 Golf Crossing,
615,Ukraine,Chernivtsi,Engineering,PO Box 46293,1132 Dexter Center,
616,Czech Republic,Dobšice,Business Development,Suite 70,40080 Lien Point,671 82
617,South Africa,Colesberg,Marketing,Apt 54,6538 Stephen Drive,9922
618,China,Fengchuan,Training,Room 984,15907 Victoria Trail,
619,China,Emin,Business Development,16th Floor,5292 South Point,
620,China,Xindian,Accounting,Room 1060,532 Talmadge Pass,
621,United States,San Jose,Human Resources,Suite 61,5230 Dawn Parkway,95194
622,Russia,Diveyevo,Legal,4th Floor,7 Scott Trail,607320
623,China,Bangshipu,Business Development,20th Floor,83585 Oxford Pass,
624,Ukraine,Zlynka,Services,Suite 31,7 Knutson Crossing,
625,China,Zhaojia,Support,Room 1096,8 Morrow Street,
626,Ukraine,Nevyts’ke,Business Development,15th Floor,2 Corry Road,
627,China,Hujiaying,Research and Development,Suite 20,77429 Daystar Avenue,
628,Poland,Kalwaria Zebrzydowska,Support,1st Floor,451 Dixon Way,34-130
629,Indonesia,Watubuku,Product Management,Apt 324,020 Park Meadow Street,
630,China,Pingshan,Sales,Suite 76,75040 Waywood Alley,
631,Philippines,Digos,Services,Apt 742,7 Buena Vista Crossing,8006
632,Peru,Yunguyo,Sales,Room 910,44788 Lakewood Gardens Alley,
633,Thailand,Nong Don,Research and Development,16th Floor,3054 Bobwhite Point,50320
634,China,Tuncheng,Product Management,Suite 91,7492 Fallview Point,
635,Saint Lucia,Castries,Business Development,10th Floor,74144 Gina Park,
636,Indonesia,Puan Selatan,Engineering,Suite 12,7698 Fairfield Street,
637,Bosnia and Herzegovina,Maslovare,Product Management,Room 419,74 Nelson Junction,
638,Bangladesh,Gaurnadi,Support,Room 1324,78711 Moland Lane,8242
639,Thailand,Phra Nakhon Si Ayutthaya,Legal,18th Floor,42 Rutledge Way,13120
640,Chad,Abéché,Research and Development,Room 968,660 Sheridan Plaza,
641,Jordan,Ḩātim,Business Development,Room 1489,1 Myrtle Junction,
642,China,Hengxianhe,Marketing,Suite 6,282 Waywood Center,
643,Greece,Empório,Marketing,Room 1573,4 Sherman Trail,
644,China,Xiaxihao,Accounting,Suite 40,343 Judy Junction,
645,United States,Jacksonville,Accounting,PO Box 93978,82 Sutherland Lane,32236
646,Brazil,Cuiabá,Engineering,PO Box 76630,950 Sutherland Road,78000-000
647,Bangladesh,Manikchari,Research and Development,Room 850,78598 Oneill Crossing,7460
648,China,Pingdi,Accounting,6th Floor,44118 Debra Place,
649,Russia,Rybnoye,Legal,Suite 28,32 Nova Crossing,400036
650,Philippines,Butuan,Accounting,Apt 1118,283 Sunnyside Way,9021
651,Indonesia,Bungursari,Support,Apt 1720,84 Mayer Point,
652,Brazil,Limoeiro,Accounting,Room 1376,60650 Bunting Road,55700-000
653,Indonesia,Kiuola,Support,Apt 486,5633 Morning Alley,
654,Croatia,Sigetec,Engineering,Apt 1169,35470 Leroy Parkway,48321
655,China,Jiqu,Business Development,Room 438,14949 Armistice Street,
656,Portugal,Rio Meão,Training,Room 1759,72181 Crowley Terrace,4520-471
657,Indonesia,Gesikan,Accounting,PO Box 28406,15 North Junction,
658,Ukraine,Vyzhnytsya,Accounting,Apt 783,954 Vidon Avenue,
659,Indonesia,Warudoyong,Research and Development,Room 705,59396 Schlimgen Street,
660,Kazakhstan,Petropavlovsk,Training,7th Floor,5 Hallows Way,
661,Malta,Żebbuġ,Marketing,PO Box 34287,9439 Portage Street,ZBB
662,Portugal,Negreiros,Sales,Suite 37,076 Karstens Circle,4775-195
663,Sweden,Färjestaden,Sales,Room 1167,9073 Luster Drive,386 35
664,Palestinian Territory,Al Karmil,Services,Suite 34,4 Stang Point,
665,Czech Republic,Březí,Legal,Suite 26,3471 Anzinger Pass,594 53
666,France,Grenoble,Engineering,15th Floor,4402 4th Circle,38051 CEDEX 9
667,China,Xihe,Engineering,Apt 1186,54999 Grasskamp Street,
668,Canada,Kamloops,Sales,Apt 203,2187 Mifflin Plaza,H9P
669,Jersey,Saint Helier,Product Management,11th Floor,8 Ridgeview Drive,JE3
670,Sweden,Helsingborg,Human Resources,Apt 1617,1 Kinsman Street,252 45
671,China,Gaoxing,Marketing,4th Floor,67 Sutherland Alley,
672,Uruguay,La Paz,Research and Development,Room 1833,4 Dryden Circle,
673,North Korea,Hŭngju-dong,Sales,PO Box 1831,536 Loeprich Alley,
674,Philippines,Lucban,Sales,Suite 55,042 Sheridan Court,4328
675,Russia,Kuzovatovo,Training,Apt 997,1 Shelley Avenue,433791
676,Poland,Grabica,Product Management,15th Floor,9 Del Sol Hill,97-306
677,Colombia,Sincé,Accounting,Suite 95,2012 Goodland Crossing,056450
678,Canada,Pangnirtung,Services,Room 1839,6661 Manitowish Pass,M5T
679,Thailand,Don Tan,Marketing,1st Floor,244 Waxwing Point,49120
680,China,Yinkeng,Sales,Suite 57,25335 Atwood Avenue,
681,Switzerland,Basel,Marketing,Apt 46,25732 Sugar Road,4024
682,Colombia,San Francisco,Marketing,Room 1757,84582 Maple Wood Park,253608
683,Portugal,Alpedrinha,Legal,3rd Floor,0 Garrison Pass,6230-060
684,Democratic Republic of the Congo,Mwene-Ditu,Services,Room 1210,1287 Farmco Road,
685,Malta,Kerċem,Product Management,Room 1672,669 Susan Place,KCM
686,Portugal,Fundão,Marketing,PO Box 43668,574 Debra Park,6230-207
687,North Korea,Samho-rodongjagu,Marketing,PO Box 93404,96522 Carey Plaza,
688,Guatemala,El Quetzal,Sales,13th Floor,481 Lien Junction,12020
689,Indonesia,Panjir,Support,20th Floor,0 Coleman Junction,
690,Egypt,Shibīn al Kawm,Services,Suite 74,894 Dayton Parkway,
691,Sweden,Älvängen,Training,13th Floor,80 Blackbird Place,446 38
692,Lithuania,Kretinga,Product Management,Room 942,328 School Hill,97001
693,Venezuela,Valle de Guanape,Legal,PO Box 59441,11 2nd Pass,
694,Indonesia,Sukojember,Training,Suite 40,573 Esch Pass,
695,Russia,Omsk,Legal,11th Floor,865 Lunder Plaza,644000
696,France,Lagny-sur-Marne,Legal,PO Box 83621,608 New Castle Lane,77404 CEDEX
697,Brazil,Baixo Guandu,Training,Apt 172,84 Norway Maple Pass,29730-000
698,China,Lingbei,Product Management,PO Box 74468,76 Vermont Drive,
699,China,Hengshui,Accounting,Apt 466,55400 Summerview Park,
700,China,Huancheng,Marketing,16th Floor,94082 Macpherson Parkway,
701,Ukraine,Zaliztsi,Marketing,Room 493,2347 Merry Park,
702,Hungary,Pécs,Support,Apt 1788,79469 Lukken Plaza,7631
703,China,Nanshan,Business Development,Apt 1887,11780 Melby Trail,
704,Poland,Pszczew,Business Development,11th Floor,2 Esker Hill,66-330
705,Japan,Sagae,Legal,Apt 622,86 Lukken Way,991-0041
706,China,Xiongjia,Business Development,15th Floor,50357 Rutledge Center,
707,Mauritius,Grande Rivière Noire,Human Resources,Suite 3,63 Nelson Center,
708,Cuba,Guantánamo,Engineering,PO Box 96650,744 Talmadge Hill,
709,Indonesia,Cinunjang,Training,9th Floor,92 Banding Terrace,
710,China,Wanghu,Research and Development,1st Floor,7916 Rockefeller Point,
711,Russia,Timiryazevskoye,Engineering,Apt 814,8 Holy Cross Park,634510
712,El Salvador,Texistepeque,Engineering,Suite 5,65 Cambridge Terrace,
713,Indonesia,Cikarang,Legal,Room 1836,4173 Reindahl Junction,
714,Mexico,Lazaro Cardenas,Marketing,PO Box 61510,7299 Fair Oaks Junction,40977
715,China,Liancheng,Business Development,Room 1433,45711 Kennedy Road,
716,Slovenia,Cankova,Marketing,PO Box 90684,8 Goodland Circle,9261
717,Portugal,Casal dos Bernardos,Legal,PO Box 94527,4052 Canary Pass,2435-010
718,Yemen,Laḩij,Business Development,16th Floor,4 Warrior Drive,
719,Egypt,‘Izbat al Burj,Sales,Suite 33,7 7th Way,
720,Indonesia,Kebon,Support,Suite 13,85424 Mccormick Place,
721,United States,Saint Petersburg,Sales,Apt 701,06 Memorial Junction,33731
722,Canada,Moosomin,Research and Development,Suite 83,1 Surrey Park,H4J
723,China,Sangzhou,Legal,Room 1121,2 Ridgeview Drive,
724,Indonesia,Kemuning,Support,PO Box 20412,609 Starling Plaza,
725,Cuba,Jimaguayú,Engineering,PO Box 54824,1 Havey Court,
726,Philippines,Talalora,Marketing,11th Floor,06777 Warrior Terrace,6719
727,China,Yege,Business Development,11th Floor,7531 Veith Parkway,
728,Greece,Armenokhórion,Accounting,Room 1128,598 Hermina Pass,
729,Indonesia,Pasirputih,Product Management,Suite 31,05191 Katie Road,
730,Sweden,Älvdalen,Marketing,Apt 1866,31796 Holmberg Court,796 25
731,South Africa,Dordrecht,Support,PO Box 76197,7413 Riverside Plaza,5436
732,Indonesia,Nglego,Services,2nd Floor,24580 Donald Terrace,
733,Philippines,Calamba,Business Development,Suite 89,915 Lighthouse Bay Hill,7210
734,China,Huabu,Human Resources,Apt 1188,93397 Old Shore Plaza,
735,Philippines,Hermosa,Support,Apt 1159,63385 Kim Pass,2111
736,Libya,Al Burayqah,Business Development,Suite 97,18852 Mitchell Circle,
737,Croatia,Vis,Training,16th Floor,34 Canary Point,21480
738,Russia,Iznoski,Engineering,PO Box 82130,38 Hermina Center,658476
739,Indonesia,Gedongmulyo,Support,Suite 98,304 Leroy Crossing,
740,China,Gaogu,Accounting,Suite 72,922 Rockefeller Trail,
741,Portugal,Malveira,Accounting,Room 569,55655 Tennyson Point,2665-189
742,China,Zhenping Chengguanzhen,Legal,Room 234,947 Arrowood Avenue,
743,Ukraine,Oster,Engineering,Room 818,04 Little Fleur Lane,
744,China,Baitu,Sales,Room 1633,85061 Chinook Terrace,
745,Peru,Coalaque,Business Development,Apt 1526,419 Lakewood Crossing,
746,Finland,Pyhäntä,Training,Apt 1536,950 Arkansas Place,92930
747,Indonesia,Nangela,Legal,Room 788,7 Northport Avenue,
748,Georgia,Khulo,Services,10th Floor,72 Warner Road,
749,Bahamas,San Andros,Legal,Apt 1156,25 Hovde Terrace,
750,Luxembourg,Wilwerwiltz,Support,PO Box 76760,3822 Banding Center,L-9776
751,Indonesia,Kutasari,Support,Room 650,53934 Chinook Circle,
752,Thailand,Na Khu,Legal,Suite 45,89772 Fuller Junction,70170
753,France,Arles,Research and Development,4th Floor,4 Portage Place,13637 CEDEX
754,Argentina,Deán Funes,Sales,Suite 78,8138 Eastlawn Point,4417
755,Poland,Boronów,Human Resources,PO Box 4701,56676 Trailsway Road,42-283
756,Indonesia,Pantaihambawang,Engineering,Suite 6,35617 Mallard Park,
757,Portugal,Seixal,Sales,Room 872,33715 Kenwood Road,2530-254
758,Portugal,Castelo,Human Resources,Apt 947,21899 Mallard Junction,4640-221
759,Poland,Jemielno,Sales,Room 1586,0862 Little Fleur Park,56-209
760,Sweden,Göteborg,Business Development,14th Floor,537 Cordelia Terrace,411 10
761,Indonesia,Rentung,Engineering,Apt 291,9911 Upham Road,
762,France,Aulnay-sous-Bois,Support,Apt 1566,1 Hudson Crossing,93616 CEDEX
763,China,Jiaocheng,Services,Apt 1915,5 Buhler Way,
764,Brazil,Seabra,Training,Suite 21,032 Pierstorff Alley,46900-000
765,Sweden,Kumla,Accounting,Apt 475,8 Crowley Alley,692 24
766,China,Leiling,Sales,Suite 74,789 Portage Junction,
767,Bulgaria,Burgas,Marketing,Room 697,0 Donald Parkway,8000
768,Poland,Nowy Sącz,Legal,Room 1444,384 Eliot Pass,33-320
769,Slovenia,Bovec,Engineering,Apt 123,29 Butterfield Lane,5230
770,Australia,Sydney,Product Management,Suite 78,129 Dryden Park,1130
771,China,Fangtian,Training,Apt 692,92238 Sugar Point,
772,Netherlands,Arnhem,Sales,Room 1769,90351 Meadow Vale Crossing,6844
773,Poland,Trzcińsko Zdrój,Human Resources,Suite 95,802 Dryden Alley,74-510
774,Indonesia,Oelaba,Marketing,6th Floor,719 Springs Drive,
775,China,Xiushi,Support,Apt 1417,7 Ilene Hill,
776,Philippines,Getulio,Marketing,PO Box 69010,75 Hagan Place,1175
777,Indonesia,Langkap,Business Development,Room 1765,5 Kennedy Terrace,
778,Russia,Businovo,Engineering,Suite 91,69 Katie Street,141707
779,Ukraine,Kornyn,Support,Room 205,9914 Bluestem Center,
780,China,Huiyuan,Business Development,Room 857,1 Novick Court,
781,Mexico,Lazaro Cardenas,Accounting,Apt 1469,396 Dapin Plaza,63807
782,China,Jiaotang,Sales,Suite 57,1945 Northfield Way,
783,Japan,Niigata-shi,Legal,Apt 843,2913 Banding Park,951-8167
784,China,Longtan,Legal,Apt 93,24 Orin Parkway,
785,Indonesia,Panggunguni,Human Resources,Suite 22,20 Michigan Junction,
786,Sweden,Karlskrona,Human Resources,16th Floor,3 Coleman Crossing,371 84
787,China,Zhijin,Product Management,Room 714,64 Schiller Crossing,
788,Indonesia,Sumbermanggis,Support,Suite 96,1738 Kings Court,
789,Philippines,Nangalisan,Training,Suite 10,65 Milwaukee Alley,4516
790,Ukraine,Nemyriv,Research and Development,PO Box 23763,1 Pine View Avenue,
791,Japan,Himi,Training,Room 825,8851 Hintze Way,879-2681
792,Brazil,Corrego Grande,Product Management,10th Floor,98 Trailsway Court,88000-000
793,Russia,Solnechnyy,Legal,8th Floor,809 Moland Terrace,660004
794,China,Xiaopu,Business Development,Apt 89,32 Southridge Hill,
795,Peru,Chaupimarca,Research and Development,PO Box 52926,15 Loftsgordon Plaza,
796,Portugal,Amieirinha,Engineering,Room 666,94132 Sycamore Road,2430-024
797,Portugal,Funchalinho,Engineering,Room 581,7 Grasskamp Circle,2825-106
798,Indonesia,Citeguh,Accounting,PO Box 43050,07098 Brickson Park Pass,
799,China,Tingping,Accounting,Apt 1846,9 Mandrake Terrace,
800,Philippines,Maño,Marketing,PO Box 72729,44 Blue Bill Park Parkway,5016
801,Jamaica,New Kingston,Training,PO Box 52071,3524 Thackeray Trail,
802,China,Duotian,Human Resources,PO Box 85707,1 Karstens Court,
803,Serbia,Stari Lec,Engineering,Apt 370,679 Del Sol Terrace,
804,Sweden,Enköping,Training,3rd Floor,484 Pond Junction,745 84
805,Somalia,Mogadishu,Support,Suite 19,265 Ruskin Point,
806,Peru,Puno,Training,Room 1086,5347 Westport Avenue,
807,China,Shinao,Accounting,Suite 71,5332 Thompson Trail,
808,Canada,North Saanich,Training,Suite 55,7 Hooker Pass,K6A
809,China,Jishui,Legal,5th Floor,339 Tony Circle,
810,South Korea,Chuncheon,Accounting,Room 1249,2057 Armistice Center,
811,Mexico,Buenavista,Business Development,PO Box 22753,96 Daystar Circle,94463
812,Peru,Longotea,Marketing,10th Floor,94 Loftsgordon Court,
813,Poland,Nielisz,Research and Development,Suite 35,6 Straubel Point,22-413
814,Kenya,Kabarnet,Research and Development,2nd Floor,7 Dahle Park,
815,Russia,Bol’shoye Skuratovo,Accounting,Apt 88,8428 Sheridan Parkway,243366
816,China,Gaoyao,Research and Development,Suite 32,728 Mitchell Place,
817,China,Shulan,Accounting,Apt 151,90 Katie Terrace,
818,Czech Republic,Solnice,Training,Room 1238,875 Westridge Center,517 01
819,China,Yangzhen,Human Resources,Room 1579,220 Oak Valley Alley,
820,New Zealand,Picton,Engineering,Apt 1754,413 Hallows Junction,7250
821,Indonesia,Lewograran,Legal,Apt 345,63 Iowa Point,
822,Indonesia,Pasirputih,Training,Room 1227,1838 Hoard Plaza,
823,China,Anjiang,Accounting,Room 1729,12 Orin Hill,
824,Poland,Gielniów,Engineering,Room 278,860 American Trail,26-434
825,Portugal,Tojeira,Business Development,Room 420,6154 Sycamore Alley,3270-152
826,China,Wuku,Human Resources,Room 1079,22464 Ilene Point,
827,China,Chashan,Services,Apt 1411,3 Becker Hill,
828,Sweden,Stockholm,Human Resources,PO Box 55204,73391 Everett Avenue,111 61
829,China,Bei’an,Accounting,PO Box 94310,28 Meadow Vale Junction,
830,Nigeria,Amper,Product Management,PO Box 1857,3 Crest Line Terrace,
831,United States,Atlanta,Marketing,Room 916,947 Grover Road,30328
832,China,Yipeng,Marketing,Suite 51,532 Ridgeway Road,
833,Iran,Kelīshād va Sūdarjān,Engineering,PO Box 30620,593 Summer Ridge Hill,
834,Azerbaijan,Kyzyl-Burun,Training,Suite 50,5 Carioca Drive,
835,Philippines,Banaba,Product Management,17th Floor,74459 Schiller Pass,4224
836,Brazil,Nanuque,Human Resources,Apt 850,64 Prentice Terrace,39860-000
837,Sweden,Åhus,Engineering,Suite 14,84 Scofield Drive,296 81
838,Central African Republic,Ippy,Training,Apt 156,22563 Texas Point,
839,Afghanistan,Jawand,Marketing,3rd Floor,20530 Washington Center,
840,Philippines,Tapas,Support,Room 613,5 Dakota Park,5814
841,Serbia,Belo Blato,Training,6th Floor,8197 Gulseth Terrace,
842,North Korea,Hyesan-dong,Business Development,Room 1553,857 Russell Road,
843,Brazil,Casa Branca,Research and Development,Suite 75,671 Dryden Plaza,13700-000
844,Indonesia,Riung,Product Management,5th Floor,224 Dakota Junction,
845,Nigeria,Gora,Business Development,PO Box 40700,52 Commercial Avenue,
846,Norway,Oslo,Training,8th Floor,00085 Beilfuss Place,0376
847,China,Xingguo,Legal,Room 1569,65647 Hooker Road,
848,China,Guanqian,Sales,PO Box 27845,3 Ryan Point,
849,Russia,Khorinsk,Research and Development,Apt 836,3461 American Ash Terrace,671410
850,Portugal,Casais Baleal,Services,PO Box 74582,69932 Gulseth Place,2520-053
851,China,Guandu,Sales,Suite 4,31751 Continental Parkway,
852,Sweden,Nossebro,Services,Suite 67,34 Logan Trail,465 96
853,Iran,Khorramdarreh,Training,PO Box 66610,25 8th Center,
854,Yemen,As Sayyānī,Sales,PO Box 44733,0 Schiller Park,
855,Sweden,Mariestad,Legal,PO Box 79455,5208 Coolidge Road,542 73
856,Russia,Gaptsakh,Sales,Room 222,81 Warner Plaza,391625
857,Portugal,São Mamede de Infesta,Human Resources,16th Floor,67 Valley Edge Street,4465-005
858,China,A’ershan,Product Management,20th Floor,2516 Oak Avenue,
859,Tajikistan,Kolkhozobod,Business Development,PO Box 2885,3 Darwin Pass,
860,Sri Lanka,Batticaloa,Marketing,Apt 140,30 Summer Ridge Street,30000
861,China,Xinle,Human Resources,Suite 96,53 Atwood Place,
862,China,Bayan Hure,Training,Suite 13,1567 Maywood Hill,
863,China,Xikou,Human Resources,PO Box 34244,4902 Eastlawn Alley,
864,Indonesia,Rantaupanjang,Legal,Suite 10,06201 Golf Lane,
865,Australia,Perth,Human Resources,PO Box 24624,593 Mayfield Way,6843
866,Venezuela,San Francisco de Yare,Product Management,Apt 921,9 Ridgeway Court,
867,Peru,San Pablo,Engineering,Room 1945,69780 Daystar Circle,
868,Indonesia,Karangtalun,Training,Suite 26,58 Shelley Plaza,
869,Luxembourg,Bridel,Legal,Room 802,45 Autumn Leaf Avenue,L-8165
870,China,Changmaoling,Business Development,Suite 65,817 Ryan Pass,
871,Russia,Novoye Devyatkino,Training,PO Box 16309,78900 Continental Circle,188665
872,Sweden,Filipstad,Product Management,PO Box 9239,2 Saint Paul Alley,682 24
873,Indonesia,Gisiliba,Marketing,Apt 1984,2 Little Fleur Plaza,
874,Kazakhstan,Ridder,Services,12th Floor,14 Northland Drive,
875,Belgium,Charleroi,Product Management,Apt 1457,988 Mandrake Place,6042
876,China,Nancheng,Human Resources,Suite 42,062 Ramsey Terrace,
877,Cameroon,Sangmélima,Research and Development,9th Floor,16 Randy Way,
878,China,Chating,Research and Development,10th Floor,46 Bartelt Terrace,
879,Nigeria,Illushi,Support,Room 1250,7736 Crowley Crossing,
880,South Africa,eMbalenhle,Marketing,17th Floor,4365 Mosinee Parkway,2285
881,Nigeria,Ibeto,Research and Development,Suite 50,914 Marcy Park,
882,Thailand,Suphan Buri,Business Development,Room 1448,1331 Fieldstone Road,96120
883,Thailand,Krasae Sin,Accounting,Suite 13,31 2nd Avenue,90270
884,Armenia,Lorut,Product Management,10th Floor,68 Eggendart Street,
885,Ukraine,Alchevs’k,Sales,Room 1697,3397 Stone Corner Circle,
886,Kyrgyzstan,Toktogul,Training,Room 247,959 Morrow Trail,
887,China,Shizikeng,Business Development,12th Floor,6 Pankratz Junction,
888,Poland,Rogów,Research and Development,PO Box 74612,78632 La Follette Terrace,95-063
889,Indonesia,Pakapasan Girang,Human Resources,16th Floor,21 Ridgeway Center,
890,China,Songjiang,Research and Development,Room 568,238 Bay Road,
891,Greece,Sápes,Research and Development,PO Box 18958,113 Esch Drive,
892,Portugal,Carvalho,Research and Development,PO Box 77873,89391 Roth Way,4605-425
893,Indonesia,Puger,Services,Suite 37,05 Macpherson Street,
894,Nigeria,Modakeke,Sales,PO Box 261,6651 Dovetail Road,
895,United States,Tallahassee,Support,Suite 38,981 Kensington Lane,32309
896,China,Changsha,Business Development,Suite 15,6 Schlimgen Plaza,
897,Sweden,Sundsvall,Human Resources,PO Box 12587,35219 Bellgrove Road,851 94
898,China,Gongming,Human Resources,PO Box 11388,11 Helena Alley,
899,Finland,Pieksämäki,Accounting,16th Floor,1 Riverside Court,76150
900,Ukraine,Lypova Dolyna,Research and Development,PO Box 24471,3 Golf View Park,
901,Portugal,Conqueiros,Marketing,Room 90,72 Crownhardt Court,2425-823
902,Poland,Przesmyki,Accounting,Apt 1749,34909 Parkside Court,08-109
903,China,Shuizhai,Support,16th Floor,519 Melby Junction,
904,Afghanistan,Quchanghī,Product Management,Apt 1290,4 Dorton Parkway,
905,Albania,Golem,Accounting,Suite 56,5920 Claremont Place,
906,China,Huifeng,Legal,Suite 68,18 Mayer Plaza,
907,Yemen,Jiblah,Marketing,Room 1428,955 Linden Court,
908,Canada,Waterloo,Engineering,Apt 802,4 Blue Bill Park Street,V9J
909,Japan,Miyata,Business Development,Apt 445,1624 Fremont Lane,981-4305
910,Sweden,Järfälla,Support,Room 166,12 Iowa Plaza,177 35
911,Portugal,Pisão,Accounting,PO Box 79968,6 Arapahoe Hill,3220-331
912,France,Roissy Charles-de-Gaulle,Business Development,Suite 74,56867 Colorado Circle,95943 CEDEX 2
913,Portugal,Fonte,Support,Suite 32,3057 American Ash Drive,4615-099
914,Venezuela,Los Rastrojos,Legal,PO Box 15844,14 Hanover Lane,
915,China,Wanzhi,Engineering,Room 1452,67113 Clyde Gallagher Terrace,
916,Russia,Pregradnoye,Human Resources,2nd Floor,6 Banding Trail,356040
917,China,Huiyi,Training,Apt 825,3 Hanson Circle,
918,Poland,Czernikowo,Business Development,PO Box 81912,87 Dunning Plaza,87-640
919,Philippines,Cabungan,Human Resources,Room 90,5066 Portage Court,2405
920,United States,Saint Paul,Research and Development,PO Box 62605,0 Daystar Lane,55103
921,China,Suohe,Marketing,16th Floor,46 Pond Pass,
922,China,Zhangyelu,Human Resources,Room 1487,9 Waywood Junction,
923,Brazil,Barão de Cocais,Training,PO Box 50456,934 Truax Place,35970-000
924,Malta,L-Iklin,Support,PO Box 66215,10 Trailsway Drive,ZTN
925,China,Dahuangwei,Human Resources,16th Floor,97 Spenser Point,
926,Poland,Husów,Business Development,7th Floor,6547 Oneill Center,37-121
927,China,Hailang,Services,1st Floor,92472 Shasta Park,
928,China,Suozhen,Services,20th Floor,457 Carey Hill,
929,China,Lijia,Business Development,Suite 7,72 Sommers Trail,
930,Venezuela,Encontrados,Marketing,12th Floor,75221 Forster Hill,
931,Madagascar,Ampasimanolotra,Product Management,Room 1593,1652 Stone Corner Trail,
932,China,Wosai,Training,Apt 10,1386 Haas Lane,
933,Brazil,Itaí,Business Development,Suite 63,9 Quincy Avenue,18730-000
934,Greece,Vári,Engineering,Suite 26,74 Hermina Trail,
935,Thailand,Bueng Sam Phan,Marketing,PO Box 98484,5 Mariners Cove Trail,27180
936,China,Dawan,Product Management,Room 986,628 Garrison Pass,
937,China,Wuluo,Research and Development,Apt 547,0 Bluejay Parkway,
938,Slovenia,Hrušica,Services,10th Floor,7523 Dawn Terrace,4276
939,Indonesia,Penggakrajeng,Services,Room 1702,76764 Annamark Circle,
940,Dominican Republic,La Romana,Accounting,6th Floor,152 Gale Terrace,11518
941,Thailand,At Samat,Support,Suite 65,29942 Becker Junction,45160
942,China,Xinjiang,Legal,Apt 1779,9 Aberg Circle,
943,United States,Honolulu,Product Management,Room 1353,01469 Fisk Circle,96825
944,China,Jiuli,Marketing,PO Box 27719,09549 Kim Drive,
945,China,Daishan,Engineering,12th Floor,444 Fairview Center,
946,Japan,Fuji,Research and Development,17th Floor,97360 Packers Road,969-7208
947,Ukraine,Turka,Research and Development,Apt 1172,5 Express Avenue,
948,Brazil,Leme,Product Management,PO Box 60491,74349 Sundown Parkway,13610-000
949,France,Digne-les-Bains,Legal,11th Floor,456 Monument Plaza,04990 CEDEX 9
950,Japan,Handa,Legal,PO Box 54811,02 Farwell Plaza,945-0812
951,China,Xiaoyan,Accounting,Suite 87,936 Manitowish Parkway,
952,Greece,Kallíthiron,Marketing,PO Box 83119,89 Drewry Center,
953,Vietnam,Nhà Bè,Human Resources,Room 676,61 Nobel Circle,
954,Russia,Sut-Khol’,Sales,Suite 54,1125 Superior Pass,668150
955,Poland,Baligród,Legal,PO Box 41265,02476 Cottonwood Trail,38-606
956,China,Jinta,Sales,PO Box 29980,56585 Crowley Point,
957,China,Shangying,Product Management,12th Floor,3389 7th Street,
958,China,Wuqiao,Marketing,Apt 322,0 Aberg Place,
959,Canada,Fort Smith,Research and Development,17th Floor,043 Delaware Avenue,L4S
960,Japan,Hayama,Product Management,Apt 475,86016 Sullivan Way,999-3242
961,Philippines,Dapawan,Training,Suite 68,7971 Hayes Way,5505
962,Peru,Aguas Verdes,Engineering,Suite 74,1898 Lighthouse Bay Road,
963,France,Montaigu,Engineering,PO Box 54267,08293 Rockefeller Plaza,85614 CEDEX
964,Serbia,Niš,Support,Suite 98,3 Mayfield Road,
965,Indonesia,Cumedak,Engineering,Suite 41,2373 Lakewood Pass,
966,Iran,Shāhīn Dezh,Legal,Suite 14,0253 Graceland Trail,
967,Argentina,Carlos Tejedor,Services,Apt 1805,700 Oak Place,6455
968,Russia,Chistopol’,Research and Development,Apt 991,25 Stoughton Lane,422986
969,Poland,Michałów,Sales,Suite 42,05539 Northport Trail,28-411
970,Philippines,Minien East,Engineering,8th Floor,6 Muir Alley,2430
971,Portugal,Vilarinho das Cambas,Business Development,13th Floor,6 Mallory Center,4760-743
972,Indonesia,Tambangan,Accounting,PO Box 94508,10 Westridge Terrace,
973,Indonesia,Tugu,Support,PO Box 58278,8 Cascade Parkway,
974,Greece,Pámfylla,Training,Suite 47,1206 Bunker Hill Avenue,
975,China,Jinji,Marketing,Room 273,8 Fairview Parkway,
976,Portugal,Martingança-Gare,Sales,Suite 7,90045 4th Drive,2445-764
977,Bosnia and Herzegovina,Stupari,Product Management,Room 1854,9 Bunting Crossing,
978,Peru,Zaña,Sales,Room 120,2741 Veith Avenue,
979,China,Shizikeng,Engineering,Apt 1201,58 Bonner Crossing,
980,China,Jundian,Marketing,Apt 561,93 Crowley Point,
981,China,Shazi,Engineering,Apt 782,20518 Sachtjen Terrace,
982,Indonesia,Dampit,Legal,Apt 163,51950 Russell Hill,
983,Nigeria,Gumel,Support,8th Floor,2 Golden Leaf Parkway,
984,Russia,Belyy Yar,Sales,Suite 91,837 Bluestem Terrace,662927
985,Sri Lanka,Gampola,Business Development,9th Floor,89 Cherokee Pass,20500
986,China,Xibing,Legal,PO Box 8496,541 Monterey Crossing,
987,Macedonia,Srbinovo,Business Development,7th Floor,4166 Union Point,1239
988,Philippines,Atimonan,Support,Apt 394,64 Elgar Court,4331
989,China,Sidu,Services,13th Floor,59877 Hoard Plaza,
990,New Zealand,Whakatane,Human Resources,Suite 6,8 Thompson Parkway,3158
991,China,Liuji,Legal,12th Floor,5231 Lillian Parkway,
992,United States,Asheville,Product Management,Apt 1979,5 Marquette Alley,28805
993,China,Dengnan,Training,Room 764,9 Dunning Road,
994,Croatia,Gorjani,Product Management,Room 841,9 Truax Hill,31422
995,Japan,Okazaki,Accounting,PO Box 10025,0537 Prentice Plaza,800-0331
996,China,Niaojin,Services,Apt 1215,2560 Ridge Oak Circle,
997,France,Sarreguemines,Marketing,19th Floor,54838 Fairview Street,57204 CEDEX
998,French Polynesia,Faaa,Human Resources,Suite 47,27 Green Ridge Street,
999,China,Wutan,Product Management,PO Box 9798,94768 Ridge Oak Street,
1000,Uruguay,Nueva Helvecia,Marketing,Apt 1158,0 Fulton Lane,
